FENGYUN 1C DEB          
1 32192U 99025CUN 17345.02263153  .00000020  00000-0  48381-4 0  9994
2 32192  98.6907  53.8890 0186392 152.9280 208.1745 13.80485189523551
